{"features":[{"geometry":{"type":"LineString","coordinates":[[90.408518,23.850463],[90.417779,23.839377],[90.41843,23.837219],[90.420621,23.825643],[90.421472,23.824626],[90.421417,23.822634],[90.420982,23.821396],[90.420104,23.82013],[90.421017,23.817895],[90.421415,23.808797],[90.424537,23.792533],[90.425822,23.78464],[90.425868,23.783283],[90.425592,23.77941],[90.425939,23.775612],[90.425541,23.772429],[90.425049,23.771112],[90.412645,23.749612],[90.412455,23.746597],[90.412177,23.745674],[90.414212,23.744202],[90.412867,23.742906],[90.40878,23.737453],[90.410356,23.737162],[90.410138,23.732829],[90.41017,23.730102],[90.410548,23.72767],[90.412131,23.727631],[90.412009,23.724861],[90.413342,23.724818],[90.414146,23.724949],[90.414591,23.725227],[90.414419,23.722876],[90.415956,23.722234],[90.421527,23.721591],[90.421632,23.72662],[90.421977,23.728628],[90.421859,23.729465],[90.421008,23.731438],[90.417988,23.7345],[90.416747,23.735339],[90.415504,23.735924],[90.410356,23.737162]]},"id":"0","properties":{"BusRouteNo":0,"Destinatio":"Gulistan","Interchang":null,"Length":18.9832652503,"Name":"Airport-Gulistan","Notes":"May be disturbed by MRT Line 1 construction.","Origin":"Airport","Priority":"C","Related_Pr":"MRT Line 1","SL":1},"type":"Feature"},{"geometry":{"type":"LineString","coordinates":[[90.408518,23.850463],[90.417779,23.839377],[90.41843,23.837219],[90.420621,23.825643],[90.420317,23.823863],[90.419847,23.822758],[90.417848,23.820812],[90.415593,23.819122],[90.411716,23.816933],[90.410703,23.816814],[90.410376,23.817109],[90.406278,23.816864],[90.405004,23.816004],[90.40445,23.815028],[90.403449,23.808054],[90.401323,23.796535],[90.39822,23.778151],[90.398867,23.775261],[90.400761,23.772462],[90.400996,23.771959],[90.401178,23.770746],[90.398933,23.756935],[90.400741,23.753457],[90.403642,23.748652],[90.405486,23.749263],[90.407114,23.749144],[90.407982,23.748914],[90.410871,23.746593],[90.414212,23.744202],[90.412116,23.741979],[90.408766,23.737455],[90.410356,23.737162],[90.410091,23.731142],[90.410711,23.726177],[90.41074,23.723025],[90.411929,23.722964],[90.412131,23.727631],[90.410552,23.727644]]},"id":"1","properties":{"BusRouteNo":0,"Destinatio":"Gulistan","Interchang":null,"Length":17.6896914676,"Name":"Airport-Gulistan","Notes":"To connect with BRT Line 3.","Origin":"Airport","Priority":"A+","Related_Pr":"Airport Road","SL":2},"type":"Feature"},{"geometry":{"type":"MultiLineString","coordinates":[[[90.408518,23.850463],[90.413628,23.844554]],[[90.411628,23.846949],[90.413628,23.844554],[90.41419,23.843867],[90.41806,23.838954],[90.4209,23.825135],[90.420093,23.822789],[90.418279,23.820799],[90.416827,23.820094],[90.413142,23.817748],[90.412923,23.817638],[90.413331,23.817885],[90.411437,23.816914],[90.410969,23.816825]],[[90.411349,23.816871],[90.410694,23.816791],[90.407298,23.817022],[90.40648,23.816921],[90.404818,23.816095],[90.40373,23.816292]],[[90.403857,23.816287],[90.400178,23.816439],[90.398563,23.81683],[90.393441,23.822591],[90.391557,23.821545],[90.390203,23.820359],[90.388737,23.81994],[90.385135,23.820541],[90.381941,23.822497],[90.380244,23.823318],[90.377626,23.82279],[90.377658,23.822223],[90.364988,23.820246],[90.368608,23.807113]],[[90.368635,23.807121],[90.368567,23.80708],[90.3667,23.80667],[90.365592,23.806194],[90.360992,23.803535],[90.353195,23.798545],[90.353941,23.785273],[90.351813,23.78157],[90.349329,23.782606],[90.344152,23.783286],[90.339433,23.783013]]]},"id":"2","properties":{"BusRouteNo":0,"Destinatio":"Gabtoli","Interchang":"Mirpur 10/11 (MRT Line 6)","Length":17.8180240333,"Name":"Airport-Gabtoli","Notes":null,"Origin":"Airport","Priority":"A","Related_Pr":"Airport Road","SL":3},"type":"Feature"},{"geometry":{"type":"LineString","coordinates":[[90.339464,23.783021],[90.343794,23.783321],[90.349015,23.782652],[90.349797,23.782429],[90.351613,23.781644],[90.356161,23.779259],[90.360457,23.778398],[90.365258,23.775205],[90.36672,23.773858],[90.367208,23.773274],[90.367654,23.772312],[90.371294,23.763094],[90.382047,23.744673],[90.385079,23.732386],[90.39082,23.733144],[90.39273,23.733199],[90.394407,23.732939],[90.396227,23.732247],[90.40039,23.728008],[90.404145,23.728287],[90.404135,23.728001],[90.404971,23.727883],[90.410552,23.727644]]},"id":"3","properties":{"BusRouteNo":0,"Destinatio":"Gulistan","Interchang":"Dhaka University","Length":10.9239729492,"Name":"Gabtoli-Gulistan","Notes":null,"Origin":"Gabtoli","Priority":"A","Related_Pr":"MRT Line 5 South","SL":4},"type":"Feature"},{"geometry":{"type":"LineString","coordinates":[[90.335817,23.733654],[90.338139,23.734841],[90.340992,23.736642],[90.341461,23.737262],[90.342282,23.73923],[90.342998,23.740404],[90.343907,23.74155],[90.344831,23.742453],[90.346632,23.743781],[90.346509,23.743937],[90.347404,23.744748],[90.347861,23.7451],[90.351517,23.74629],[90.352052,23.746633],[90.353849,23.750124],[90.355299,23.75444],[90.35672,23.755935],[90.361445,23.75709],[90.36724,23.752234],[90.373939,23.742352],[90.376056,23.738396],[90.379082,23.73871],[90.383196,23.739521],[90.383468,23.738832],[90.388604,23.73905],[90.395867,23.738104],[90.397715,23.738071],[90.399227,23.737413],[90.400911,23.734526],[90.403678,23.733692],[90.404499,23.732392],[90.405188,23.729939],[90.414683,23.730289],[90.415179,23.730204],[90.421632,23.72662],[90.421527,23.721591],[90.415956,23.722234],[90.414479,23.722867],[90.414591,23.725227],[90.414146,23.724949],[90.413342,23.724818],[90.412009,23.724861],[90.412131,23.727631],[90.410552,23.727644],[90.41017,23.730102]]},"id":"4","properties":{"BusRouteNo":0,"Destinatio":"Gulistan","Interchang":"Shahbagh, Bangladesh Secretariat","Length":14.6001899359,"Name":"Ghatarchar-Gulistan","Notes":"Ongoing project under the Bus Route Rationalisation Project.","Origin":"Ghatarchar","Priority":"A","Related_Pr":"MRT Line 2","SL":5},"type":"Feature"},{"geometry":{"type":"LineString","coordinates":[[90.408518,23.850463],[90.417779,23.839377],[90.41843,23.837219],[90.420621,23.825643],[90.420317,23.823863],[90.419847,23.822758],[90.417848,23.820812],[90.415593,23.819122],[90.411716,23.816933],[90.410703,23.816814],[90.410376,23.817109],[90.406278,23.816864],[90.405004,23.816004],[90.40445,23.815028],[90.403449,23.808054],[90.401323,23.796535],[90.398282,23.778621],[90.392591,23.775701],[90.389896,23.77531],[90.39007,23.772947],[90.389215,23.768522],[90.38897,23.764774],[90.389317,23.761247],[90.389789,23.759146],[90.374078,23.758376],[90.38206,23.744712],[90.384643,23.733973],[90.3857,23.730392],[90.385961,23.728307],[90.386772,23.725429]]},"id":"5","properties":{"BusRouteNo":0,"Destinatio":"Azimpur","Interchang":"Farmgate","Length":17.6780889,"Name":"Airport-Azimpur","Notes":null,"Origin":"Airport","Priority":"A","Related_Pr":"Airport Road","SL":6},"type":"Feature"},{"geometry":{"type":"LineString","coordinates":[[90.363749,23.833457],[90.363894,23.829297],[90.364158,23.827898],[90.364478,23.822108],[90.368576,23.807112],[90.378,23.785153],[90.382521,23.770411],[90.383351,23.765123],[90.38902,23.764614],[90.389229,23.761905],[90.389781,23.758895],[90.393946,23.748473],[90.396007,23.741442],[90.398519,23.742136],[90.399888,23.74084],[90.403317,23.738831],[90.404274,23.737322],[90.405228,23.737556],[90.407945,23.737572],[90.410356,23.737162],[90.410091,23.731142],[90.410552,23.727644]]},"id":"6","properties":{"BusRouteNo":0,"Destinatio":"Gulistan","Interchang":null,"Length":13.8939187963,"Name":"Mirpur 12-Gulistan","Notes":"MRT Line 6 is already in operation; route is competitive.","Origin":"Mirpur 12","Priority":"C","Related_Pr":"MRT Line 6","SL":7},"type":"Feature"},{"geometry":{"type":"LineString","coordinates":[[90.339464,23.783021],[90.341886,23.78316],[90.342886,23.78326],[90.343794,23.783321],[90.344769,23.783245],[90.347989,23.782798],[90.349015,23.782652],[90.349797,23.782429],[90.351613,23.781644],[90.356161,23.779259],[90.360457,23.778398],[90.365972,23.774643],[90.367208,23.773274],[90.367654,23.772312],[90.371294,23.763094],[90.378267,23.751227],[90.379142,23.751801],[90.381026,23.752514],[90.381792,23.752718],[90.383564,23.752828],[90.384849,23.752514],[90.385689,23.751753],[90.3871,23.751051],[90.393411,23.749906],[90.397014,23.751187],[90.400767,23.753473],[90.398933,23.756935],[90.401029,23.769684],[90.401144,23.771304],[90.400761,23.772462],[90.398867,23.775261],[90.39822,23.778151],[90.400306,23.790555],[90.396463,23.790543],[90.394465,23.790796],[90.391754,23.790512],[90.389951,23.790967],[90.387937,23.790777],[90.387812,23.79188],[90.387952,23.793738],[90.387236,23.798506],[90.382851,23.800135],[90.380986,23.801156],[90.376054,23.805178],[90.374629,23.806146],[90.369582,23.807263],[90.366485,23.80664],[90.363492,23.8051],[90.353253,23.798548],[90.353777,23.79109],[90.353939,23.785363],[90.351813,23.78157],[90.349797,23.782489],[90.348829,23.782702],[90.347211,23.782884],[90.345345,23.783143],[90.343925,23.783281],[90.342894,23.783261],[90.341189,23.783107],[90.340145,23.783014],[90.339433,23.783013]]},"id":"7","properties":{"BusRouteNo":0,"Destinatio":"Gabtoli Circular","Interchang":"Mirpur 10, Karwan Bazar","Length":21.9977360977,"Name":"Gabtoli-Gabtoli Circular","Notes":null,"Origin":"Gabtoli","Priority":"A","Related_Pr":"MRT Line 5 North","SL":8},"type":"Feature"},{"geometry":{"type":"LineString","coordinates":[[90.423674,23.797655],[90.422585,23.797515],[90.418711,23.796205],[90.414602,23.795022],[90.413476,23.794506],[90.409485,23.79348],[90.408068,23.793513],[90.400951,23.794464],[90.400025,23.788026],[90.398682,23.781086],[90.405573,23.780652],[90.407809,23.780312],[90.416275,23.780332],[90.421702,23.780821],[90.425661,23.780635],[90.425866,23.784069],[90.425716,23.785426],[90.423725,23.796696],[90.423674,23.797655],[90.422585,23.797515],[90.414602,23.795022],[90.41423,23.794779],[90.414702,23.793984],[90.415888,23.790876],[90.416711,23.787814],[90.41699,23.785631],[90.416944,23.783322],[90.416643,23.780921],[90.416744,23.780454]]},"id":"8","properties":{"BusRouteNo":0,"Destinatio":"Gulshan 2 Circular","Interchang":null,"Length":11.2129112385,"Name":"Gulshan 2-Gulshan 2 Circular","Notes":null,"Origin":"Gulshan 2","Priority":"B","Related_Pr":null,"SL":9},"type":"Feature"},{"geometry":{"type":"MultiLineString","coordinates":[[[90.401567,23.75396],[90.403381,23.753809],[90.404045,23.754179],[90.404358,23.755447],[90.405922,23.758242],[90.407355,23.758579],[90.408561,23.758444],[90.409194,23.758526],[90.410392,23.75893],[90.410613,23.75935],[90.410483,23.760139],[90.410674,23.761251],[90.412286,23.765284],[90.414214,23.767382],[90.415595,23.768384],[90.416518,23.768643],[90.417289,23.768598],[90.418586,23.768216],[90.421973,23.768],[90.422237,23.768159],[90.422772,23.76937],[90.422986,23.770011],[90.422813,23.770462],[90.421921,23.771323],[90.421609,23.771435],[90.420775,23.770812],[90.419753,23.770839],[90.419211,23.771052],[90.418532,23.771726],[90.417991,23.77267],[90.417273,23.772962],[90.416892,23.772924],[90.416495,23.77259],[90.415557,23.772718],[90.41297,23.771429],[90.412406,23.769064],[90.411979,23.768633],[90.411231,23.768476],[90.409873,23.768986],[90.409095,23.768953],[90.408774,23.768696],[90.408645,23.768333],[90.40882,23.767584],[90.409331,23.767061],[90.410888,23.765987],[90.41104,23.765539],[90.410795,23.764754],[90.410147,23.763869],[90.406699,23.760352],[90.404185,23.758639],[90.40353,23.75796],[90.403069,23.756676],[90.402073,23.755869],[90.402061,23.754953],[90.401855,23.754186],[90.398799,23.7522],[90.396376,23.750905],[90.393276,23.749903],[90.3871,23.751051],[90.385689,23.751753],[90.384442,23.752699],[90.383336,23.75289],[90.380735,23.752417],[90.379352,23.751901],[90.378261,23.751224]],[[90.415785,23.772718],[90.415671,23.773085],[90.41617,23.774211],[90.416779,23.779578],[90.416643,23.780921],[90.416985,23.783856],[90.41699,23.785631],[90.41675,23.78763],[90.415888,23.790876],[90.414641,23.794118],[90.41423,23.794779]]]},"id":"9","properties":{"BusRouteNo":0,"Destinatio":"Panthapath","Interchang":null,"Length":12.5954395565,"Name":"Gulshan 2-Panthapath","Notes":"Operates via Hatirjheel (one-way).","Origin":"Gulshan 2","Priority":"A","Related_Pr":"Hatirjheel (One-way)","SL":10},"type":"Feature"},{"geometry":{"type":"LineString","coordinates":[[90.521616,23.705818],[90.520473,23.705541],[90.519531,23.704956],[90.511528,23.698736],[90.509006,23.697597],[90.506315,23.696796],[90.476159,23.693224],[90.473233,23.693085],[90.47103,23.693301],[90.468475,23.694086],[90.444127,23.705741],[90.434871,23.709967],[90.430556,23.711234],[90.426787,23.713683],[90.424755,23.714796],[90.422555,23.715905],[90.420561,23.716419],[90.417972,23.72062],[90.417126,23.721443],[90.415956,23.722234],[90.414479,23.722867],[90.413245,23.723039],[90.411929,23.722964]]},"id":"10","properties":{"BusRouteNo":0,"Destinatio":"Kanchpur","Interchang":null,"Length":12.5079647131,"Name":"Gulistan-Kanchpur","Notes":"Part of the Nagar Paribahan route organization project.","Origin":"Gulistan","Priority":"A","Related_Pr":null,"SL":11},"type":"Feature"}],"type":"FeatureCollection"}